{"type": "FeatureCollection", "features": [ {"type": "Feature", "properties": {"norad_id": 44476, "name": "INTELSAT 39 (IS-39)", "group": "intelsat", "lat": 0.02546555212884739, "lon": 112.44802490163606, "alt_km": 35781.22163199693, "timestamp": "2025-12-16T21:38:56.838130+00:00", "meta": {"OBJECT_NAME": "INTELSAT 39 (IS-39)", "OBJECT_ID": "2019-049B", "EPOCH": "2025-12-16T05:05:25.361376", "MEAN_MOTION": 1.00270735, "ECCENTRICITY": 0.00013829, "INCLINATION": 0.0181, "RA_OF_ASC_NODE": 324.6792, "ARG_OF_PERICENTER": 176.4777, "MEAN_ANOMALY": 82.2518, "EPHEMERIS_TYPE": 0, "CLASSIFICATION_TYPE": "U", "NORAD_CAT_ID": 44476, "ELEMENT_SET_NO": 999, "REV_AT_EPOCH": 2329, "BSTAR": 0, "MEAN_MOTION_DOT": 5.7e-07, "MEAN_MOTION_DDOT": 0}, "tle": {"line1": "1 44476U 19049B   25350.21209909  .00000057  00000+0  00000+0 0  9995", "line2": "2 44476   0.0181 324.6792 0001382 176.4777  82.2518  1.00270735 23290"}}, "geometry": {"type": "Point", "coordinates": [112.44802490163606, 0.02546555212884739]}}, {"type": "Feature", "properties": {"norad_id": 46114, "name": "GALAXY 30 (G-30)", "group": "intelsat", "lat": -0.03799504475369672, "lon": -74.47680973136062, "alt_km": 35778.00162501006, "timestamp": "2025-12-16T21:38:56.838142+00:00", "meta": {"OBJECT_NAME": "GALAXY 30 (G-30)", "OBJECT_ID": "2020-056C", "EPOCH": "2025-12-16T07:49:38.599680", "MEAN_MOTION": 1.00271775, "ECCENTRICITY": 0.00020584, "INCLINATION": 0.0177, "RA_OF_ASC_NODE": 8.9457, "ARG_OF_PERICENTER": 253.9841, "MEAN_ANOMALY": 174.7024, "EPHEMERIS_TYPE": 0, "CLASSIFICATION_TYPE": "U", "NORAD_CAT_ID": 46114, "ELEMENT_SET_NO": 999, "REV_AT_EPOCH": 1945, "BSTAR": 0, "MEAN_MOTION_DOT": 6e-07, "MEAN_MOTION_DDOT": 0}, "tle": {"line1": "1 46114U 20056C   25350.32614120  .00000060  00000+0  00000+0 0  9997", "line2": "2 46114   0.0177   8.9457 0002058 253.9841 174.7024  1.00271775 19457"}}, "geometry": {"type": "Point", "coordinates": [-74.47680973136062, -0.03799504475369672]}}, {"type": "Feature", "properties": {"norad_id": 54026, "name": "GALAXY 33 (G-33)", "group": "intelsat", "lat": -0.038105391121697404, "lon": -82.47176628803413, "alt_km": 35778.46799415375, "timestamp": "2025-12-16T21:38:56.838154+00:00", "meta": {"OBJECT_NAME": "GALAXY 33 (G-33)", "OBJECT_ID": "2022-128A", "EPOCH": "2025-12-16T07:57:38.784960", "MEAN_MOTION": 1.00273184, "ECCENTRICITY": 0.00017798, "INCLINATION": 0.016, "RA_OF_ASC_NODE": 353.7015, "ARG_OF_PERICENTER": 265.968, "MEAN_ANOMALY": 171.974, "EPHEMERIS_TYPE": 0, "CLASSIFICATION_TYPE": "U", "NORAD_CAT_ID": 54026, "ELEMENT_SET_NO": 999, "REV_AT_EPOCH": 1190, "BSTAR": 0, "MEAN_MOTION_DOT": 1.02e-06, "MEAN_MOTION_DDOT": 0}, "tle": {"line1": "1 54026U 22128A   25350.33169890  .00000102  00000+0  00000+0 0  9997", "line2": "2 54026   0.0160 353.7015 0001779 265.9680 171.9740  1.00273184 11906"}}, "geometry": {"type": "Point", "coordinates": [-82.47176628803413, -0.038105391121697404]}}, {"type": "Feature", "properties": {"norad_id": 54027, "name": "GALAXY 34 (G-34)", "group": "intelsat", "lat": -0.03976256269362163, "lon": -78.40848452356218, "alt_km": 35780.26538296789, "timestamp": "2025-12-16T21:38:56.838166+00:00", "meta": {"OBJECT_NAME": "GALAXY 34 (G-34)", "OBJECT_ID": "2022-128B", "EPOCH": "2025-12-16T07:49:38.599680", "MEAN_MOTION": 1.00271312, "ECCENTRICITY": 0.00014867, "INCLINATION": 0.0238, "RA_OF_ASC_NODE": 335.3769, "ARG_OF_PERICENTER": 286.0174, "MEAN_ANOMALY": 172.3105, "EPHEMERIS_TYPE": 0, "CLASSIFICATION_TYPE": "U", "NORAD_CAT_ID": 54027, "ELEMENT_SET_NO": 999, "REV_AT_EPOCH": 1207, "BSTAR": 0, "MEAN_MOTION_DOT": 0, "MEAN_MOTION_DDOT": 0}, "tle": {"line1": "1 54027U 22128B   25350.32614120  .00000000  00000+0  00000+0 0  9995", "line2": "2 54027   0.0238 335.3769 0001486 286.0174 172.3105  1.00271312 12072"}}, "geometry": {"type": "Point", "coordinates": [-78.40848452356218, -0.03976256269362163]}}, {"type": "Feature", "properties": {"norad_id": 54243, "name": "GALAXY 31 (G-31)", "group": "intelsat", "lat": -0.03409791656635521, "lon": -70.49281520251037, "alt_km": 35779.920845724526, "timestamp": "2025-12-16T21:38:56.838177+00:00", "meta": {"OBJECT_NAME": "GALAXY 31 (G-31)", "OBJECT_ID": "2022-153A", "EPOCH": "2025-12-16T05:55:58.017792", "MEAN_MOTION": 1.00271589, "ECCENTRICITY": 0.00014823, "INCLINATION": 0.0151, "RA_OF_ASC_NODE": 15.2372, "ARG_OF_PERICENTER": 264.9435, "MEAN_ANOMALY": 132.9453, "EPHEMERIS_TYPE": 0, "CLASSIFICATION_TYPE": "U", "NORAD_CAT_ID": 54243, "ELEMENT_SET_NO": 999, "REV_AT_EPOCH": 529, "BSTAR": 0, "MEAN_MOTION_DOT": 0, "MEAN_MOTION_DDOT": 0}, "tle": {"line1": "1 54243U 22153A   25350.24719928  .00000000  00000+0  00000+0 0  9996", "line2": "2 54243   0.0151  15.2372 0001482 264.9435 132.9453  1.00271589  5291"}}, "geometry": {"type": "Point", "coordinates": [-70.49281520251037, -0.03409791656635521]}}, {"type": "Feature", "properties": {"norad_id": 54244, "name": "GALAXY 32 (G-32)", "group": "intelsat", "lat": -0.009780073801902985, "lon": -40.486895755018864, "alt_km": 35775.3909253443, "timestamp": "2025-12-16T21:38:56.838188+00:00", "meta": {"OBJECT_NAME": "GALAXY 32 (G-32)", "OBJECT_ID": "2022-153B", "EPOCH": "2025-12-16T06:04:34.694112", "MEAN_MOTION": 1.00271715, "ECCENTRICITY": 0.00025577, "INCLINATION": 0.0088, "RA_OF_ASC_NODE": 334.5551, "ARG_OF_PERICENTER": 342.5712, "MEAN_ANOMALY": 128.1659, "EPHEMERIS_TYPE": 0, "CLASSIFICATION_TYPE": "U", "NORAD_CAT_ID": 54244, "ELEMENT_SET_NO": 999, "REV_AT_EPOCH": 1131, "BSTAR": 0, "MEAN_MOTION_DOT": -1.51e-06, "MEAN_MOTION_DDOT": 0}, "tle": {"line1": "1 54244U 22153B   25350.25317933 -.00000151  00000+0  00000+0 0  9996", "line2": "2 54244   0.0088 334.5551 0002557 342.5712 128.1659  1.00271715 11318"}}, "geometry": {"type": "Point", "coordinates": [-40.486895755018864, -0.009780073801902985]}}, {"type": "Feature", "properties": {"norad_id": 54741, "name": "GALAXY 35 (G-35)", "group": "intelsat", "lat": -0.022090551276347563, "lon": -42.590806666059905, "alt_km": 35780.15988645837, "timestamp": "2025-12-16T21:38:56.838200+00:00", "meta": {"OBJECT_NAME": "GALAXY 35 (G-35)", "OBJECT_ID": "2022-170A", "EPOCH": "2025-12-16T06:03:57.252672", "MEAN_MOTION": 1.00269182, "ECCENTRICITY": 0.00022597, "INCLINATION": 0.0162, "RA_OF_ASC_NODE": 358.0639, "ARG_OF_PERICENTER": 273.7552, "MEAN_ANOMALY": 171.2014, "EPHEMERIS_TYPE": 0, "CLASSIFICATION_TYPE": "U", "NORAD_CAT_ID": 54741, "ELEMENT_SET_NO": 999, "REV_AT_EPOCH": 1105, "BSTAR": 0, "MEAN_MOTION_DOT": 0, "MEAN_MOTION_DDOT": 0}, "tle": {"line1": "1 54741U 22170A   25350.25274598  .00000000  00000+0  00000+0 0  9998", "line2": "2 54741   0.0162 358.0639 0002259 273.7552 171.2014  1.00269182 11057"}}, "geometry": {"type": "Point", "coordinates": [-42.590806666059905, -0.022090551276347563]}}, {"type": "Feature", "properties": {"norad_id": 54742, "name": "GALAXY 36 (G-36)", "group": "intelsat", "lat": 0.006665604681419116, "lon": -38.48729449664774, "alt_km": 35784.90388976573, "timestamp": "2025-12-16T21:38:56.838211+00:00", "meta": {"OBJECT_NAME": "GALAXY 36 (G-36)", "OBJECT_ID": "2022-170B", "EPOCH": "2025-12-16T00:56:59.787168", "MEAN_MOTION": 1.00271449, "ECCENTRICITY": 3.17e-05, "INCLINATION": 0.0179, "RA_OF_ASC_NODE": 265.4266, "ARG_OF_PERICENTER": 63.4356, "MEAN_ANOMALY": 41.3263, "EPHEMERIS_TYPE": 0, "CLASSIFICATION_TYPE": "U", "NORAD_CAT_ID": 54742, "ELEMENT_SET_NO": 999, "REV_AT_EPOCH": 1093, "BSTAR": 0, "MEAN_MOTION_DOT": -1.62e-06, "MEAN_MOTION_DDOT": 0}, "tle": {"line1": "1 54742U 22170B   25350.03958087 -.00000162  00000+0  00000+0 0  9997", "line2": "2 54742   0.0179 265.4266 0000317  63.4356  41.3263  1.00271449 10930"}}, "geometry": {"type": "Point", "coordinates": [-38.48729449664774, 0.006665604681419116]}}, {"type": "Feature", "properties": {"norad_id": 57493, "name": "GALAXY 37 (G-37)", "group": "intelsat", "lat": -0.031485556411823365, "lon": -76.47142054451635, "alt_km": 35777.45212355202, "timestamp": "2025-12-16T21:38:56.838223+00:00", "meta": {"OBJECT_NAME": "GALAXY 37 (G-37)", "OBJECT_ID": "2023-112A", "EPOCH": "2025-12-15T23:03:25.663680", "MEAN_MOTION": 1.00272925, "ECCENTRICITY": 0.00019988, "INCLINATION": 0.0242, "RA_OF_ASC_NODE": 56.2601, "ARG_OF_PERICENTER": 214.3075, "MEAN_ANOMALY": 33.1555, "EPHEMERIS_TYPE": 0, "CLASSIFICATION_TYPE": "U", "NORAD_CAT_ID": 57493, "ELEMENT_SET_NO": 999, "REV_AT_EPOCH": 870, "BSTAR": 0, "MEAN_MOTION_DOT": 7e-07, "MEAN_MOTION_DDOT": 0}, "tle": {"line1": "1 57493U 23112A   25349.96071370  .00000070  00000+0  00000+0 0  9998", "line2": "2 57493   0.0242  56.2601 0001998 214.3075  33.1555  1.00272925  8702"}}, "geometry": {"type": "Point", "coordinates": [-76.47142054451635, -0.031485556411823365]}}]}